[{"OBJECT_NAME":"TEVEL2-8","OBJECT_ID":"2025-052AF","EPOCH":"2026-03-09T16:02:08.542752","MEAN_MOTION":15.28392908,"ECCENTRICITY":0.0008031,"INCLINATION":97.4055,"RA_OF_ASC_NODE":324.2923,"ARG_OF_PERICENTER":124.9191,"MEAN_ANOMALY":235.2804,"EPHEMERIS_TYPE":0,"CLASSIFICATION_TYPE":"U","NORAD_CAT_ID":63239,"ELEMENT_SET_NO":999,"REV_AT_EPOCH":5480,"BSTAR":0.00069303947,"MEAN_MOTION_DOT":0.0001913,"MEAN_MOTION_DDOT":0},{"OBJECT_NAME":"STARLINK-33625","OBJECT_ID":"2025-057W","EPOCH":"2026-03-09T05:17:50.577792","MEAN_MOTION":15.2758344,"ECCENTRICITY":0.00017171,"INCLINATION":43.0012,"RA_OF_ASC_NODE":25.8894,"ARG_OF_PERICENTER":253.4037,"MEAN_ANOMALY":106.6627,"EPHEMERIS_TYPE":0,"CLASSIFICATION_TYPE":"U","NORAD_CAT_ID":63327,"ELEMENT_SET_NO":999,"REV_AT_EPOCH":5579,"BSTAR":0.0008984879,"MEAN_MOTION_DOT":0.00024547,"MEAN_MOTION_DDOT":0}]
